start=new Date('2021-11-12T00:00:00.000Z').valueOf();
sats=[{"INCLINATION":"53.0544","TIME_SYSTEM":"UTC","EPOCH":"2021-11-11T20:42:28.732320","RCS_SIZE":"LARGE","REV_AT_EPOCH":"5415","APOAPSIS":"548.527","SEMIMAJOR_AXIS":"6925.387","ELEMENT_SET_NO":"999","PERIOD":"95.593","DECAY_DATE":null,"ECCENTRICITY":"0.00018410","OBJECT_NAME":"STARLINK-1895","MEAN_MOTION":"15.06387506","REF_FRAME":"TEME","ARG_OF_PERICENTER":"63.8350","MEAN_MOTION_DDOT":"0.0000000000000","RA_OF_ASC_NODE":"169.2363","SITE":"AFETR","MEAN_MOTION_DOT":"0.00001247","CENTER_NAME":"EARTH","LAUNCH_DATE":"2020-11-25","OBJECT_ID":"2020-088BF","EPHEMERIS_TYPE":"0","FILE":"3212485","NORAD_CAT_ID":"47175","MEAN_ANOMALY":"296.2828","CLASSIFICATION_TYPE":"U","OBJECT_TYPE":"PAYLOAD","GP_ID":"189526060","TLE_LINE1":"1 47175U 20088BF  21315.86283255  .00001247  00000-0  10266-3 0  9995","COUNTRY_CODE":"US","BSTAR":"0.00010266000000","MEAN_ELEMENT_THEORY":"SGP4","TLE_LINE2":"2 47175  53.0544 169.2363 0001841  63.8350 296.2828 15.06387506 54159","PERIAPSIS":"545.977"},{"OBJECT_TYPE":"PAYLOAD","GP_ID":"189526310","TLE_LINE1":"1 47177U 20088BH  21315.91348914 -.00002437  00000-0 -14478-3 0  9990","COUNTRY_CODE":"US","TLE_LINE2":"2 47177  53.0526 179.0249 0001527  72.5673 287.5482 15.06400522 54028","PERIAPSIS":"546.154","BSTAR":"-0.00014478000000","MEAN_ELEMENT_THEORY":"SGP4","LAUNCH_DATE":"2020-11-25","EPHEMERIS_TYPE":"0","OBJECT_ID":"2020-088BH","CLASSIFICATION_TYPE":"U","FILE":"3212485","NORAD_CAT_ID":"47177","MEAN_ANOMALY":"287.5482","DECAY_DATE":null,"ECCENTRICITY":"0.00015270","OBJECT_NAME":"STARLINK-1907","RA_OF_ASC_NODE":"179.0249","SITE":"AFETR","MEAN_MOTION":"15.06400522","REF_FRAME":"TEME","ARG_OF_PERICENTER":"72.5673","MEAN_MOTION_DDOT":"0.0000000000000","CENTER_NAME":"EARTH","MEAN_MOTION_DOT":"-0.00002437","INCLINATION":"53.0526","TIME_SYSTEM":"UTC","EPOCH":"2021-11-11T21:55:25.461696","RCS_SIZE":"LARGE","REV_AT_EPOCH":"5402","APOAPSIS":"548.269","SEMIMAJOR_AXIS":"6925.347","ELEMENT_SET_NO":"999","PERIOD":"95.592"},{"EPHEMERIS_TYPE":"0","OBJECT_ID":"2020-088BJ","CLASSIFICATION_TYPE":"U","NORAD_CAT_ID":"47178","MEAN_ANOMALY":"294.4801","FILE":"3212485","LAUNCH_DATE":"2020-11-25","COUNTRY_CODE":"US","PERIAPSIS":"546.078","TLE_LINE2":"2 47178  53.0541 189.0970 0001599  65.6355 294.4801 15.06409222 53877","MEAN_ELEMENT_THEORY":"SGP4","BSTAR":"0.00000328750000","OBJECT_TYPE":"PAYLOAD","TLE_LINE1":"1 47178U 20088BJ  21315.89412554 -.00000233  00000-0  32875-5 0  9994","GP_ID":"189527559","SEMIMAJOR_AXIS":"6925.320","ELEMENT_SET_NO":"999","APOAPSIS":"548.293","REV_AT_EPOCH":"5387","PERIOD":"95.592","INCLINATION":"53.0541","TIME_SYSTEM":"UTC","RCS_SIZE":"LARGE","EPOCH":"2021-11-11T21:27:32.446656","CENTER_NAME":"EARTH","MEAN_MOTION_DOT":"-0.00000233","DECAY_DATE":null,"ECCENTRICITY":"0.00015990","OBJECT_NAME":"STARLINK-1912","RA_OF_ASC_NODE":"189.0970","SITE":"AFETR","ARG_OF_PERICENTER":"65.6355","MEAN_MOTION_DDOT":"0.0000000000000","REF_FRAME":"TEME","MEAN_MOTION":"15.06409222"},{"ELEMENT_SET_NO":"999","SEMIMAJOR_AXIS":"6925.367","APOAPSIS":"548.457","REV_AT_EPOCH":"5374","PERIOD":"95.593","TIME_SYSTEM":"UTC","INCLINATION":"53.0521","RCS_SIZE":"LARGE","EPOCH":"2021-11-11T22:45:50.328288","CENTER_NAME":"EARTH","MEAN_MOTION_DOT":"0.00000230","OBJECT_NAME":"STARLINK-1913","DECAY_DATE":null,"ECCENTRICITY":"0.00017690","RA_OF_ASC_NODE":"198.8615","SITE":"AFETR","ARG_OF_PERICENTER":"70.6383","MEAN_MOTION_DDOT":"0.0000000000000","REF_FRAME":"TEME","MEAN_MOTION":"15.06393989","EPHEMERIS_TYPE":"0","OBJECT_ID":"2020-088BK","CLASSIFICATION_TYPE":"U","NORAD_CAT_ID":"47179","MEAN_ANOMALY":"289.4797","FILE":"3212485","LAUNCH_DATE":"2020-11-25","COUNTRY_CODE":"US","PERIAPSIS":"546.007","TLE_LINE2":"2 47179  53.0521 198.8615 0001769  70.6383 289.4797 15.06393989 53742","MEAN_ELEMENT_THEORY":"SGP4","BSTAR":"0.00003433100000","OBJECT_TYPE":"PAYLOAD","TLE_LINE1":"1 47179U 20088BK  21315.94849917  .00000230  00000-0  34331-4 0  9992","GP_ID":"189527810"},{"OBJECT_TYPE":"PAYLOAD","TLE_LINE1":"1 47181U 20088BM  21315.92177121 -.00000355  00000-0 -49205-5 0  9991","GP_ID":"189526558","COUNTRY_CODE":"US","MEAN_ELEMENT_THEORY":"SGP4","BSTAR":"-0.00000492050000","PERIAPSIS":"546.204","TLE_LINE2":"2 47181  53.0543 168.9791 0001427  83.5006 276.6145 15.06407085 54163","LAUNCH_DATE":"2020-11-25","OBJECT_ID":"2020-088BM","EPHEMERIS_TYPE":"0","NORAD_CAT_ID":"47181","MEAN_ANOMALY":"276.6145","FILE":"3212485","CLASSIFICATION_TYPE":"U","DECAY_DATE":null,"ECCENTRICITY":"0.00014270","OBJECT_NAME":"STARLINK-1927","ARG_OF_PERICENTER":"83.5006","MEAN_MOTION_DDOT":"0.0000000000000","MEAN_MOTION":"15.06407085","REF_FRAME":"TEME","SITE":"AFETR","RA_OF_ASC_NODE":"168.9791","MEAN_MOTION_DOT":"-0.00000355","CENTER_NAME":"EARTH","INCLINATION":"53.0543","TIME_SYSTEM":"UTC","RCS_SIZE":"LARGE","EPOCH":"2021-11-11T22:07:21.032544","ELEMENT_SET_NO":"999","SEMIMAJOR_AXIS":"6925.327","REV_AT_EPOCH":"5416","APOAPSIS":"548.180","PERIOD":"95.592"},{"PERIOD":"91.634","REV_AT_EPOCH":"4543","APOAPSIS":"357.175","ELEMENT_SET_NO":"999","SEMIMAJOR_AXIS":"6732.854","EPOCH":"2021-11-11T15:04:17.840064","RCS_SIZE":"LARGE","INCLINATION":"53.0498","TIME_SYSTEM":"UTC","MEAN_MOTION_DOT":"0.00005796","CENTER_NAME":"EARTH","REF_FRAME":"TEME","MEAN_MOTION":"15.71462280","MEAN_MOTION_DDOT":"0.0000000000000","ARG_OF_PERICENTER":"14.0746","SITE":"AFETR","RA_OF_ASC_NODE":"282.5215","ECCENTRICITY":"0.00036480","DECAY_DATE":null,"OBJECT_NAME":"STARLINK-1952","FILE":"3212485","NORAD_CAT_ID":"47349","MEAN_ANOMALY":"346.0372","CLASSIFICATION_TYPE":"U","OBJECT_ID":"2021-005A","EPHEMERIS_TYPE":"0","LAUNCH_DATE":"2021-01-20","MEAN_ELEMENT_THEORY":"SGP4","BSTAR":"0.00004907700000","TLE_LINE2":"2 47349  53.0498 282.5215 0003648  14.0746 346.0372 15.71462280 45433","PERIAPSIS":"352.263","COUNTRY_CODE":"US","GP_ID":"189526576","TLE_LINE1":"1 47349U 21005A   21315.62798426  .00005796  00000-0  49077-4 0  9999","OBJECT_TYPE":"PAYLOAD"},{"REV_AT_EPOCH":"4505","APOAPSIS":"548.313","ELEMENT_SET_NO":"999","SEMIMAJOR_AXIS":"6925.388","PERIOD":"95.593","INCLINATION":"53.0473","TIME_SYSTEM":"UTC","EPOCH":"2021-11-11T16:40:56.037792","RCS_SIZE":"LARGE","CENTER_NAME":"EARTH","MEAN_MOTION_DOT":"-0.00000034","ECCENTRICITY":"0.00015310","DECAY_DATE":null,"OBJECT_NAME":"STARLINK-2011","SITE":"AFETR","RA_OF_ASC_NODE":"310.0470","MEAN_MOTION":"15.06387112","REF_FRAME":"TEME","ARG_OF_PERICENTER":"67.2753","MEAN_MOTION_DDOT":"0.0000000000000","EPHEMERIS_TYPE":"0","OBJECT_ID":"2021-005B","CLASSIFICATION_TYPE":"U","FILE":"3212485","MEAN_ANOMALY":"292.8397","NORAD_CAT_ID":"47350","LAUNCH_DATE":"2021-01-20","COUNTRY_CODE":"US","TLE_LINE2":"2 47350  53.0473 310.0470 0001531  67.2753 292.8397 15.06387112 45056","PERIAPSIS":"546.193","BSTAR":"0.00001663200000","MEAN_ELEMENT_THEORY":"SGP4","OBJECT_TYPE":"PAYLOAD","GP_ID":"189526826","TLE_LINE1":"1 47350U 21005B   21315.69509303 -.00000034  00000-0  16632-4 0  9994"},{"COUNTRY_CODE":"US","TLE_LINE2":"2 47351  53.0524 270.4556 0001942  68.0812 292.0384 15.06407054 45594","PERIAPSIS":"545.847","BSTAR":"0.00017882000000","MEAN_ELEMENT_THEORY":"SGP4","OBJECT_TYPE":"PAYLOAD","GP_ID":"189493541","TLE_LINE1":"1 47351U 21005C   21315.59190004  .00002383  00000-0  17882-3 0  9993","EPHEMERIS_TYPE":"0","OBJECT_ID":"2021-005C","CLASSIFICATION_TYPE":"U","FILE":"3212088","NORAD_CAT_ID":"47351","MEAN_ANOMALY":"292.0384","LAUNCH_DATE":"2021-01-20","CENTER_NAME":"EARTH","MEAN_MOTION_DOT":"0.00002383","ECCENTRICITY":"0.00019420","DECAY_DATE":null,"OBJECT_NAME":"STARLINK-2017","RA_OF_ASC_NODE":"270.4556","SITE":"AFETR","REF_FRAME":"TEME","MEAN_MOTION":"15.06407054","MEAN_MOTION_DDOT":"0.0000000000000","ARG_OF_PERICENTER":"68.0812","REV_AT_EPOCH":"4559","APOAPSIS":"548.537","SEMIMAJOR_AXIS":"6925.327","ELEMENT_SET_NO":"999","PERIOD":"95.592","TIME_SYSTEM":"UTC","INCLINATION":"53.0524","EPOCH":"2021-11-11T14:12:20.163456","RCS_SIZE":"LARGE"},{"RA_OF_ASC_NODE":"311.2708","SITE":"AFETR","REF_FRAME":"TEME","MEAN_MOTION":"15.06402800","MEAN_MOTION_DDOT":"0.0000000000000","ARG_OF_PERICENTER":"75.6903","DECAY_DATE":null,"OBJECT_NAME":"STARLINK-2034","ECCENTRICITY":"0.00013760","CENTER_NAME":"EARTH","MEAN_MOTION_DOT":"-0.00001408","EPOCH":"2021-11-11T09:52:13.942272","RCS_SIZE":"LARGE","TIME_SYSTEM":"UTC","INCLINATION":"53.0556","PERIOD":"95.592","APOAPSIS":"548.158","REV_AT_EPOCH":"4500","SEMIMAJOR_AXIS":"6925.340","ELEMENT_SET_NO":"999","GP_ID":"189494293","TLE_LINE1":"1 47352U 21005D   21315.41127248 -.00001408  00000-0 -75614-4 0  9992","OBJECT_TYPE":"PAYLOAD","TLE_LINE2":"2 47352  53.0556 311.2708 0001376  75.6903 284.4238 15.06402800 45002","PERIAPSIS":"546.252","BSTAR":"-0.00007561400000","MEAN_ELEMENT_THEORY":"SGP4","COUNTRY_CODE":"US","LAUNCH_DATE":"2021-01-20","CLASSIFICATION_TYPE":"U","FILE":"3212088","NORAD_CAT_ID":"47352","MEAN_ANOMALY":"284.4238","EPHEMERIS_TYPE":"0","OBJECT_ID":"2021-005D"},{"COUNTRY_CODE":"US","PERIAPSIS":"546.278","TLE_LINE2":"2 47353  53.0556 255.5697 0001328  78.2583 281.8555 15.06405089 46466","BSTAR":"-0.00000953500000","MEAN_ELEMENT_THEORY":"SGP4","OBJECT_TYPE":"PAYLOAD","TLE_LINE1":"1 47353U 21005E   21315.56561855 -.00000423  00000-0 -95350-5 0  9991","GP_ID":"189497061","EPHEMERIS_TYPE":"0","OBJECT_ID":"2021-005E","CLASSIFICATION_TYPE":"U","MEAN_ANOMALY":"281.8555","NORAD_CAT_ID":"47353","FILE":"3212131","LAUNCH_DATE":"2021-01-20","CENTER_NAME":"EARTH","MEAN_MOTION_DOT":"-0.00000423","DECAY_DATE":null,"ECCENTRICITY":"0.00013280","OBJECT_NAME":"STARLINK-2045","RA_OF_ASC_NODE":"255.5697","SITE":"AFETR","ARG_OF_PERICENTER":"78.2583","MEAN_MOTION_DDOT":"0.0000000000000","REF_FRAME":"TEME","MEAN_MOTION":"15.06405089","SEMIMAJOR_AXIS":"6925.333","ELEMENT_SET_NO":"999","APOAPSIS":"548.118","REV_AT_EPOCH":"4646","PERIOD":"95.592","INCLINATION":"53.0556","TIME_SYSTEM":"UTC","RCS_SIZE":"LARGE","EPOCH":"2021-11-11T13:34:29.442720"}];
